[
  {
    "name": "KUIPER-00533",
    "noradId": "69605",
    "line1": "1 69605U 26140P   26176.83335647  .00027120  00000+0  72448-3 0  9999",
    "line2": "2 69605  51.8798 356.9164 0007480 245.6823 110.6624 15.37871844  1974"
  },
  {
    "name": "KUIPER-00534",
    "noradId": "69606",
    "line1": "1 69606U 26140Q   26176.83335647  .00030255  00000+0  74953-3 0  9996",
    "line2": "2 69606  51.8828 356.7917 0014695 191.9484 226.2281 15.40045515  2263"
  },
  {
    "name": "KUIPER-00537",
    "noradId": "69607",
    "line1": "1 69607U 26140R   26176.83335647  .00027010  00000+0  77228-3 0  9990",
    "line2": "2 69607  51.8815 357.0473 0008143 346.3231 308.1323 15.35755411  2239"
  },
  {
    "name": "KUIPER-00538",
    "noradId": "69608",
    "line1": "1 69608U 26140S   26176.83335647  .00031365  00000+0  85347-3 0  9990",
    "line2": "2 69608  51.8820 356.9575 0005563 263.5858  73.8673 15.37235369  2472"
  },
  {
    "name": "KUIPER-00540",
    "noradId": "69609",
    "line1": "1 69609U 26140T   26176.83335647  .00027644  00000+0  76815-3 0  9996",
    "line2": "2 69609  51.8823 356.9995 0005396 313.5146   4.3170 15.36651626  1963"
  },
  {
    "name": "KUIPER-00541",
    "noradId": "69610",
    "line1": "1 69610U 26140U   26176.83335647  .00027237  00000+0  72784-3 0  9997",
    "line2": "2 69610  51.8831 356.9287 0006855 241.7560 110.5881 15.37863897  2473"
  },
  {
    "name": "KUIPER-00542",
    "noradId": "69611",
    "line1": "1 69611U 26140V   26176.83335647  .00027394  00000+0  72617-3 0  9997",
    "line2": "2 69611  51.8798 356.9094 0007377 224.9687 134.8716 15.38105454  1570"
  },
  {
    "name": "KUIPER-00543",
    "noradId": "69612",
    "line1": "1 69612U 26140W   26176.83335647  .00029148  00000+0  81699-3 0  9997",
    "line2": "2 69612  51.8792 357.0122 0006755 331.2219 336.9861 15.36345106  1812"
  },
  {
    "name": "KUIPER-00544",
    "noradId": "69613",
    "line1": "1 69613U 26140X   26176.83335647  .00027550  00000+0  73948-3 0  9991",
    "line2": "2 69613  51.8798 356.9329 0006321 242.2188 106.0384 15.37723479  2070"
  },
  {
    "name": "KUIPER-00546",
    "noradId": "69614",
    "line1": "1 69614U 26140Y   26176.83335647  .00038767  00000+0  10048-2 0  9995",
    "line2": "2 69614  51.8801 356.7850 0015109 189.7001 231.7476 15.38534709  2510"
  },
  {
    "name": "KUIPER-00547",
    "noradId": "69615",
    "line1": "1 69615U 26140Z   26176.83335647  .00027162  00000+0  69784-3 0  9995",
    "line2": "2 69615  51.8833 356.8546 0011440 210.4542 177.6588 15.39035487  1303"
  },
  {
    "name": "KUIPER-00549",
    "noradId": "69616",
    "line1": "1 69616U 26140AA  26176.83335647  .00028722  00000+0  79193-3 0  9994",
    "line2": "2 69616  51.8799 356.9823 0006161 306.7342  17.0333 15.36868459  2413"
  },
  {
    "name": "KUIPER-00550",
    "noradId": "69617",
    "line1": "1 69617U 26140AB  26176.83335647  .00051409  00000+0  14733-2 0  9991",
    "line2": "2 69617  51.8798 357.0555 0006521 353.6795 294.1097 15.35381788  1801"
  },
  {
    "name": "KUIPER-00551",
    "noradId": "69618",
    "line1": "1 69618U 26140AC  26176.83335647  .00027301  00000+0  68958-3 0  9995",
    "line2": "2 69618  51.8799 356.8207 0013416 202.3208 201.2959 15.39529611  1308"
  },
  {
    "name": "KUIPER-00554",
    "noradId": "69619",
    "line1": "1 69619U 26140AD  26176.83335647  .00027183  00000+0  69521-3 0  9991",
    "line2": "2 69619  51.8799 356.8458 0011751 210.9616 180.3059 15.39170978  2234"
  },
  {
    "name": "KUIPER-00555",
    "noradId": "69620",
    "line1": "1 69620U 26140AE  26176.83335647  .00029677  00000+0  75222-3 0  9998",
    "line2": "2 69620  51.8832 356.8344 0012553 203.7331 194.0327 15.39387414  2036"
  },
  {
    "name": "KUIPER-00556",
    "noradId": "69621",
    "line1": "1 69621U 26140AF  26176.83335647  .00037701  00000+0  10001-2 0  9999",
    "line2": "2 69621  51.8820 356.8233 0012615 192.3903 210.4346 15.37869673  2234"
  },
  {
    "name": "KUIPER-00557",
    "noradId": "69622",
    "line1": "1 69622U 26140AG  26176.83335647  .00027478  00000+0  71184-3 0  9990",
    "line2": "2 69622  51.8822 356.8710 0010716 217.8698 161.9233 15.38782598  1393"
  },
  {
    "name": "KUIPER-00560",
    "noradId": "69623",
    "line1": "1 69623U 26140AH  26176.83335647  .00027033  00000+0  71025-3 0  9992",
    "line2": "2 69623  51.8799 356.8928 0008599 226.3627 141.5534 15.38377991  2140"
  },
  {
    "name": "KUIPER-00561",
    "noradId": "69624",
    "line1": "1 69624U 26140AJ  26176.83335647  .00027067  00000+0  71430-3 0  9990",
    "line2": "2 69624  51.8832 356.9047 0007979 225.7721 138.1703 15.38245724  2352"
  },
  {
    "name": "KUIPER-00564",
    "noradId": "69625",
    "line1": "1 69625U 26140AK  26176.83335647  .00027194  00000+0  71106-3 0  9992",
    "line2": "2 69625  51.8822 356.8853 0009396 217.0336 155.7200 15.38515571  1814"
  },
  {
    "name": "KUIPER-00567",
    "noradId": "69626",
    "line1": "1 69626U 26140AL  26176.83335647  .00036995  00000+0  97460-3 0  9993",
    "line2": "2 69626  51.8788 356.8116 0013284 194.8737 213.1467 15.38083848  2548"
  },
  {
    "name": "KUIPER-00573",
    "noradId": "69627",
    "line1": "1 69627U 26140AM  26176.83335647  .00035809  00000+0  97219-3 0  9999",
    "line2": "2 69627  51.8797 356.8619 0009890 207.2392 176.1369 15.37208363  2483"
  }
]