OBJECT_NAME,OBJECT_ID,EPOCH,MEAN_MOTION,ECCENTRICITY,INCLINATION,RA_OF_ASC_NODE,ARG_OF_PERICENTER,MEAN_ANOMALY,EPHEMERIS_TYPE,CLASSIFICATION_TYPE,NORAD_CAT_ID,ELEMENT_SET_NO,REV_AT_EPOCH,BSTAR,MEAN_MOTION_DOT,MEAN_MOTION_DDOT
KUIPER-00533,2026-140P,2026-06-25T20:00:01.999008,15.37871844,.000748,51.8798,356.9164,245.6823,110.6624,0,U,69605,999,197,.72448E-3,.2712E-3,0
KUIPER-00534,2026-140Q,2026-06-25T20:00:01.999008,15.40045515,.0014695,51.8828,356.7917,191.9484,226.2281,0,U,69606,999,226,.74953E-3,.30255E-3,0
KUIPER-00537,2026-140R,2026-06-25T20:00:01.999008,15.35755411,.0008143,51.8815,357.0473,346.3231,308.1323,0,U,69607,999,223,.77228E-3,.2701E-3,0
KUIPER-00538,2026-140S,2026-06-25T20:00:01.999008,15.37235369,.0005563,51.8820,356.9575,263.5858,73.8673,0,U,69608,999,247,.85347E-3,.31365E-3,0
KUIPER-00540,2026-140T,2026-06-25T20:00:01.999008,15.36651626,.0005396,51.8823,356.9995,313.5146,4.3170,0,U,69609,999,196,.76815E-3,.27644E-3,0
KUIPER-00541,2026-140U,2026-06-25T20:00:01.999008,15.37863897,.0006855,51.8831,356.9287,241.7560,110.5881,0,U,69610,999,247,.72784E-3,.27237E-3,0
KUIPER-00542,2026-140V,2026-06-25T20:00:01.999008,15.38105454,.0007377,51.8798,356.9094,224.9687,134.8716,0,U,69611,999,157,.72617E-3,.27394E-3,0
KUIPER-00543,2026-140W,2026-06-25T20:00:01.999008,15.36345106,.0006755,51.8792,357.0122,331.2219,336.9861,0,U,69612,999,181,.81699E-3,.29148E-3,0
KUIPER-00544,2026-140X,2026-06-25T20:00:01.999008,15.37723479,.0006321,51.8798,356.9329,242.2188,106.0384,0,U,69613,999,207,.73948E-3,.2755E-3,0
KUIPER-00546,2026-140Y,2026-06-25T20:00:01.999008,15.38534709,.0015109,51.8801,356.7850,189.7001,231.7476,0,U,69614,999,251,.10048E-2,.38767E-3,0
KUIPER-00547,2026-140Z,2026-06-25T20:00:01.999008,15.39035487,.001144,51.8833,356.8546,210.4542,177.6588,0,U,69615,999,130,.69784E-3,.27162E-3,0
KUIPER-00549,2026-140AA,2026-06-25T20:00:01.999008,15.36868459,.0006161,51.8799,356.9823,306.7342,17.0333,0,U,69616,999,241,.79193E-3,.28722E-3,0
KUIPER-00550,2026-140AB,2026-06-25T20:00:01.999008,15.35381788,.0006521,51.8798,357.0555,353.6795,294.1097,0,U,69617,999,180,.14733E-2,.51409E-3,0
KUIPER-00551,2026-140AC,2026-06-25T20:00:01.999008,15.39529611,.0013416,51.8799,356.8207,202.3208,201.2959,0,U,69618,999,130,.68958E-3,.27301E-3,0
KUIPER-00554,2026-140AD,2026-06-25T20:00:01.999008,15.39170978,.0011751,51.8799,356.8458,210.9616,180.3059,0,U,69619,999,223,.69521E-3,.27183E-3,0
KUIPER-00555,2026-140AE,2026-06-25T20:00:01.999008,15.39387414,.0012553,51.8832,356.8344,203.7331,194.0327,0,U,69620,999,203,.75222E-3,.29677E-3,0
KUIPER-00556,2026-140AF,2026-06-25T20:00:01.999008,15.37869673,.0012615,51.8820,356.8233,192.3903,210.4346,0,U,69621,999,223,.10001E-2,.37701E-3,0
KUIPER-00557,2026-140AG,2026-06-25T20:00:01.999008,15.38782598,.0010716,51.8822,356.8710,217.8698,161.9233,0,U,69622,999,139,.71184E-3,.27478E-3,0
KUIPER-00560,2026-140AH,2026-06-25T20:00:01.999008,15.38377991,.0008599,51.8799,356.8928,226.3627,141.5534,0,U,69623,999,214,.71025E-3,.27033E-3,0
KUIPER-00561,2026-140AJ,2026-06-25T20:00:01.999008,15.38245724,.0007979,51.8832,356.9047,225.7721,138.1703,0,U,69624,999,235,.7143E-3,.27067E-3,0
KUIPER-00564,2026-140AK,2026-06-25T20:00:01.999008,15.38515571,.0009396,51.8822,356.8853,217.0336,155.7200,0,U,69625,999,181,.71106E-3,.27194E-3,0
KUIPER-00567,2026-140AL,2026-06-25T20:00:01.999008,15.38083848,.0013284,51.8788,356.8116,194.8737,213.1467,0,U,69626,999,254,.9746E-3,.36995E-3,0
KUIPER-00573,2026-140AM,2026-06-25T20:00:01.999008,15.37208363,.000989,51.8797,356.8619,207.2392,176.1369,0,U,69627,999,248,.97219E-3,.35809E-3,0
